[{"OBJECT_NAME":"ORBCOMM FM118","OBJECT_ID":"2015-081E","EPOCH":"2026-03-09T11:40:57.402336","MEAN_MOTION":14.58732197,"ECCENTRICITY":0.00039245,"INCLINATION":47.0034,"RA_OF_ASC_NODE":113.1194,"ARG_OF_PERICENTER":286.8765,"MEAN_ANOMALY":73.169,"EPHEMERIS_TYPE":0,"CLASSIFICATION_TYPE":"U","NORAD_CAT_ID":41183,"ELEMENT_SET_NO":999,"REV_AT_EPOCH":54317,"BSTAR":0.00026393443,"MEAN_MOTION_DOT":1.073e-5,"MEAN_MOTION_DDOT":0},{"OBJECT_NAME":"COSMOS 2251 DEB","OBJECT_ID":"1993-036AGK","EPOCH":"2026-02-21T16:15:51.407712","MEAN_MOTION":14.61180672,"ECCENTRICITY":0.00473587,"INCLINATION":74.0256,"RA_OF_ASC_NODE":186.2538,"ARG_OF_PERICENTER":4.6404,"MEAN_ANOMALY":355.519,"EPHEMERIS_TYPE":0,"CLASSIFICATION_TYPE":"U","NORAD_CAT_ID":35022,"ELEMENT_SET_NO":999,"REV_AT_EPOCH":60179,"BSTAR":0.00036098097,"MEAN_MOTION_DOT":1.775e-5,"MEAN_MOTION_DDOT":0}]
